{"type": "FeatureCollection", "features": [ {"type": "Feature", "properties": {"norad_id": 41335, "name": "SENTINEL-3A", "group": "resource", "lat": 19.415303244290385, "lon": 45.23304474075448, "alt_km": 802.5176385575141, "timestamp": "2025-12-09T05:43:20.385107+00:00", "meta": {"OBJECT_NAME": "SENTINEL-3A", "OBJECT_ID": "2016-011A", "EPOCH": "2025-12-08T19:31:54.772896", "MEAN_MOTION": 14.26744599, "ECCENTRICITY": 9.6e-05, "INCLINATION": 98.6212, "RA_OF_ASC_NODE": 47.88, "ARG_OF_PERICENTER": 92.7594, "MEAN_ANOMALY": 267.3696, "EPHEMERIS_TYPE": 0, "CLASSIFICATION_TYPE": "U", "NORAD_CAT_ID": 41335, "ELEMENT_SET_NO": 999, "REV_AT_EPOCH": 51091, "BSTAR": 0.00014691, "MEAN_MOTION_DOT": 3.12e-06, "MEAN_MOTION_DDOT": 0}, "tle": {"line1": "1 41335U 16011A   25342.81382839  .00000312  00000+0  14691-3 0  9992", "line2": "2 41335  98.6212  47.8800 0000960  92.7594 267.3696 14.26744599510910"}}, "geometry": {"type": "Point", "coordinates": [45.23304474075448, 19.415303244290385]}}, {"type": "Feature", "properties": {"norad_id": 41556, "name": "ZIYUAN 3-2 (ZY 3-2)", "group": "resource", "lat": 19.339609148038853, "lon": 54.8469328522559, "alt_km": 505.6318483210471, "timestamp": "2025-12-09T05:43:20.385118+00:00", "meta": {"OBJECT_NAME": "ZIYUAN 3-2 (ZY 3-2)", "OBJECT_ID": "2016-033A", "EPOCH": "2025-12-08T20:09:57.153312", "MEAN_MOTION": 15.21415965, "ECCENTRICITY": 0.0012408, "INCLINATION": 97.4043, "RA_OF_ASC_NODE": 57.0713, "ARG_OF_PERICENTER": 264.3396, "MEAN_ANOMALY": 95.6425, "EPHEMERIS_TYPE": 0, "CLASSIFICATION_TYPE": "U", "NORAD_CAT_ID": 41556, "ELEMENT_SET_NO": 999, "REV_AT_EPOCH": 52904, "BSTAR": 0.00048418, "MEAN_MOTION_DOT": 0.00010827, "MEAN_MOTION_DDOT": 0}, "tle": {"line1": "1 41556U 16033A   25342.84024483  .00010827  00000+0  48418-3 0  9998", "line2": "2 41556  97.4043  57.0713 0012408 264.3396  95.6425 15.21415965529041"}}, "geometry": {"type": "Point", "coordinates": [54.8469328522559, 19.339609148038853]}}, {"type": "Feature", "properties": {"norad_id": 41599, "name": "CARTOSAT-2C", "group": "resource", "lat": -9.171785946574982, "lon": 41.739289159337986, "alt_km": 511.59440346117026, "timestamp": "2025-12-09T05:43:20.385129+00:00", "meta": {"OBJECT_NAME": "CARTOSAT-2C", "OBJECT_ID": "2016-040A", "EPOCH": "2025-12-08T20:16:42.352032", "MEAN_MOTION": 15.19232132, "ECCENTRICITY": 0.0010897, "INCLINATION": 97.4767, "RA_OF_ASC_NODE": 40.1348, "ARG_OF_PERICENTER": 76.5546, "MEAN_ANOMALY": 283.6902, "EPHEMERIS_TYPE": 0, "CLASSIFICATION_TYPE": "U", "NORAD_CAT_ID": 41599, "ELEMENT_SET_NO": 999, "REV_AT_EPOCH": 52481, "BSTAR": 0.00024305, "MEAN_MOTION_DOT": 5.059e-05, "MEAN_MOTION_DDOT": 0}, "tle": {"line1": "1 41599U 16040A   25342.84493463  .00005059  00000+0  24305-3 0  9991", "line2": "2 41599  97.4767  40.1348 0010897  76.5546 283.6902 15.19232132524817"}}, "geometry": {"type": "Point", "coordinates": [41.739289159337986, -9.171785946574982]}}, {"type": "Feature", "properties": {"norad_id": 41601, "name": "SKYSAT-C1", "group": "resource", "lat": -58.64971285927173, "lon": -171.15650210046167, "alt_km": 477.1502124005583, "timestamp": "2025-12-09T05:43:20.385139+00:00", "meta": {"OBJECT_NAME": "SKYSAT-C1", "OBJECT_ID": "2016-040C", "EPOCH": "2025-12-08T16:08:39.611616", "MEAN_MOTION": 15.32476434, "ECCENTRICITY": 0.0002823, "INCLINATION": 96.9825, "RA_OF_ASC_NODE": 19.9156, "ARG_OF_PERICENTER": 26.9507, "MEAN_ANOMALY": 333.1882, "EPHEMERIS_TYPE": 0, "CLASSIFICATION_TYPE": "U", "NORAD_CAT_ID": 41601, "ELEMENT_SET_NO": 999, "REV_AT_EPOCH": 52865, "BSTAR": 0.00038709, "MEAN_MOTION_DOT": 0.00012074, "MEAN_MOTION_DDOT": 0}, "tle": {"line1": "1 41601U 16040C   25342.67268069  .00012074  00000+0  38709-3 0  9996", "line2": "2 41601  96.9825  19.9156 0002823  26.9507 333.1882 15.32476434528651"}}, "geometry": {"type": "Point", "coordinates": [-171.15650210046167, -58.64971285927173]}}, {"type": "Feature", "properties": {"norad_id": 41603, "name": "LAPAN-A3", "group": "resource", "lat": 35.3986785854017, "lon": -24.191088336896183, "alt_km": 464.41001635575594, "timestamp": "2025-12-09T05:43:20.385150+00:00", "meta": {"OBJECT_NAME": "LAPAN-A3", "OBJECT_ID": "2016-040E", "EPOCH": "2025-12-08T21:43:35.938848", "MEAN_MOTION": 15.31506422, "ECCENTRICITY": 0.0010123, "INCLINATION": 97.143, "RA_OF_ASC_NODE": 340.6007, "ARG_OF_PERICENTER": 348.4799, "MEAN_ANOMALY": 11.621, "EPHEMERIS_TYPE": 0, "CLASSIFICATION_TYPE": "U", "NORAD_CAT_ID": 41603, "ELEMENT_SET_NO": 999, "REV_AT_EPOCH": 52567, "BSTAR": 0.00022012, "MEAN_MOTION_DOT": 6.633e-05, "MEAN_MOTION_DDOT": 0}, "tle": {"line1": "1 41603U 16040E   25342.90527707  .00006633  00000+0  22012-3 0  9995", "line2": "2 41603  97.1430 340.6007 0010123 348.4799  11.6210 15.31506422525676"}}, "geometry": {"type": "Point", "coordinates": [-24.191088336896183, 35.3986785854017]}}, {"type": "Feature", "properties": {"norad_id": 41604, "name": "BIROS", "group": "resource", "lat": -36.04589969183872, "lon": -170.6479317516158, "alt_km": 312.8593339685758, "timestamp": "2025-12-09T05:43:20.385160+00:00", "meta": {"OBJECT_NAME": "BIROS", "OBJECT_ID": "2016-040F", "EPOCH": "2025-12-08T15:12:13.776192", "MEAN_MOTION": 15.87952948, "ECCENTRICITY": 0.0003072, "INCLINATION": 97.0685, "RA_OF_ASC_NODE": 13.9056, "ARG_OF_PERICENTER": 155.8564, "MEAN_ANOMALY": 204.2853, "EPHEMERIS_TYPE": 0, "CLASSIFICATION_TYPE": "U", "NORAD_CAT_ID": 41604, "ELEMENT_SET_NO": 999, "REV_AT_EPOCH": 52807, "BSTAR": 0.00067624, "MEAN_MOTION_DOT": 0.00185324, "MEAN_MOTION_DDOT": 0}, "tle": {"line1": "1 41604U 16040F   25342.63349278  .00185324  00000+0  67624-3 0  9994", "line2": "2 41604  97.0685  13.9056 0003072 155.8564 204.2853 15.87952948528076"}}, "geometry": {"type": "Point", "coordinates": [-170.6479317516158, -36.04589969183872]}}, {"type": "Feature", "properties": {"norad_id": 41727, "name": "GAOFEN-3", "group": "resource", "lat": -36.46663730274564, "lon": 162.60556362808495, "alt_km": 758.4694127026287, "timestamp": "2025-12-09T05:43:20.385171+00:00", "meta": {"OBJECT_NAME": "GAOFEN-3", "OBJECT_ID": "2016-049A", "EPOCH": "2025-12-08T20:23:41.042112", "MEAN_MOTION": 14.42211621, "ECCENTRICITY": 0.0001523, "INCLINATION": 98.4034, "RA_OF_ASC_NODE": 348.495, "ARG_OF_PERICENTER": 66.3472, "MEAN_ANOMALY": 293.7878, "EPHEMERIS_TYPE": 0, "CLASSIFICATION_TYPE": "U", "NORAD_CAT_ID": 41727, "ELEMENT_SET_NO": 999, "REV_AT_EPOCH": 49121, "BSTAR": 1.3497e-06, "MEAN_MOTION_DOT": -3.9e-07, "MEAN_MOTION_DDOT": 0}, "tle": {"line1": "1 41727U 16049A   25342.84978058 -.00000039  00000+0  13497-5 0  9997", "line2": "2 41727  98.4034 348.4950 0001523  66.3472 293.7878 14.42211621491218"}}, "geometry": {"type": "Point", "coordinates": [162.60556362808495, -36.46663730274564]}}, {"type": "Feature", "properties": {"norad_id": 41771, "name": "SKYSAT-C4", "group": "resource", "lat": 52.693356598092386, "lon": -0.5986365474180793, "alt_km": 434.89493595763724, "timestamp": "2025-12-09T05:43:20.385181+00:00", "meta": {"OBJECT_NAME": "SKYSAT-C4", "OBJECT_ID": "2016-058B", "EPOCH": "2025-12-08T15:28:33.367296", "MEAN_MOTION": 15.42072055, "ECCENTRICITY": 0.0001122, "INCLINATION": 96.9373, "RA_OF_ASC_NODE": 8.0317, "ARG_OF_PERICENTER": 131.9874, "MEAN_ANOMALY": 228.1469, "EPHEMERIS_TYPE": 0, "CLASSIFICATION_TYPE": "U", "NORAD_CAT_ID": 41771, "ELEMENT_SET_NO": 999, "REV_AT_EPOCH": 51604, "BSTAR": 0.00043998, "MEAN_MOTION_DOT": 0.00018741, "MEAN_MOTION_DDOT": 0}, "tle": {"line1": "1 41771U 16058B   25342.64483064  .00018741  00000+0  43998-3 0  9997", "line2": "2 41771  96.9373   8.0317 0001122 131.9874 228.1469 15.42072055516046"}}, "geometry": {"type": "Point", "coordinates": [-0.5986365474180793, 52.693356598092386]}}, {"type": "Feature", "properties": {"norad_id": 41772, "name": "SKYSAT-C5", "group": "resource", "lat": 54.46781562846527, "lon": 17.112132933242926, "alt_km": 454.93716266533465, "timestamp": "2025-12-09T05:43:20.385192+00:00", "meta": {"OBJECT_NAME": "SKYSAT-C5", "OBJECT_ID": "2016-058C", "EPOCH": "2025-12-08T15:24:16.799040", "MEAN_MOTION": 15.35248104, "ECCENTRICITY": 0.0002249, "INCLINATION": 97.076, "RA_OF_ASC_NODE": 26.5564, "ARG_OF_PERICENTER": 143.4055, "MEAN_ANOMALY": 216.7344, "EPHEMERIS_TYPE": 0, "CLASSIFICATION_TYPE": "U", "NORAD_CAT_ID": 41772, "ELEMENT_SET_NO": 999, "REV_AT_EPOCH": 51453, "BSTAR": 0.00038263, "MEAN_MOTION_DOT": 0.00013027, "MEAN_MOTION_DDOT": 0}, "tle": {"line1": "1 41772U 16058C   25342.64186110  .00013027  00000+0  38263-3 0  9991", "line2": "2 41772  97.0760  26.5564 0002249 143.4055 216.7344 15.35248104514537"}}, "geometry": {"type": "Point", "coordinates": [17.112132933242926, 54.46781562846527]}}, {"type": "Feature", "properties": {"norad_id": 41773, "name": "SKYSAT-C2", "group": "resource", "lat": 40.02509393077911, "lon": 1.9596208957788641, "alt_km": 448.3555284187787, "timestamp": "2025-12-09T05:43:20.385202+00:00", "meta": {"OBJECT_NAME": "SKYSAT-C2", "OBJECT_ID": "2016-058D", "EPOCH": "2025-12-08T15:29:09.816864", "MEAN_MOTION": 15.37129465, "ECCENTRICITY": 0.0004649, "INCLINATION": 97.036, "RA_OF_ASC_NODE": 7.3456, "ARG_OF_PERICENTER": 44.7513, "MEAN_ANOMALY": 315.4107, "EPHEMERIS_TYPE": 0, "CLASSIFICATION_TYPE": "U", "NORAD_CAT_ID": 41773, "ELEMENT_SET_NO": 999, "REV_AT_EPOCH": 51573, "BSTAR": 0.00041366, "MEAN_MOTION_DOT": 0.00014974, "MEAN_MOTION_DDOT": 0}, "tle": {"line1": "1 41773U 16058D   25342.64525251  .00014974  00000+0  41366-3 0  9995", "line2": "2 41773  97.0360   7.3456 0004649  44.7513 315.4107 15.37129465515736"}}, "geometry": {"type": "Point", "coordinates": [1.9596208957788641, 40.02509393077911]}}]}